{"type": "FeatureCollection", "features": [ {"type": "Feature", "properties": {"norad_id": 43010, "name": "FENGYUN 3D", "group": "weather", "lat": 72.95222323953655, "lon": 166.36498150479397, "alt_km": 819.1299135919098, "timestamp": "2025-12-14T22:38:40.403248+00:00", "meta": {"OBJECT_NAME": "FENGYUN 3D", "OBJECT_ID": "2017-072A", "EPOCH": "2025-12-14T08:37:20.305920", "MEAN_MOTION": 14.1968451, "ECCENTRICITY": 9.974e-05, "INCLINATION": 98.9892, "RA_OF_ASC_NODE": 314.6937, "ARG_OF_PERICENTER": 175.6014, "MEAN_ANOMALY": 184.517, "EPHEMERIS_TYPE": 0, "CLASSIFICATION_TYPE": "U", "NORAD_CAT_ID": 43010, "ELEMENT_SET_NO": 999, "REV_AT_EPOCH": 41876, "BSTAR": 3.8742024e-05, "MEAN_MOTION_DOT": 3.6e-07, "MEAN_MOTION_DDOT": 0}, "tle": {"line1": "1 43010U 17072A   25348.35926280  .00000036  00000+0  38742-4 0  9998", "line2": "2 43010  98.9892 314.6937 0000997 175.6014 184.5170 14.19684510418768"}}, "geometry": {"type": "Point", "coordinates": [166.36498150479397, 72.95222323953655]}}, {"type": "Feature", "properties": {"norad_id": 43013, "name": "NOAA 20 (JPSS-1)", "group": "weather", "lat": -73.19033439495847, "lon": 74.52588976946697, "alt_km": 835.7688128998161, "timestamp": "2025-12-14T22:38:40.403259+00:00", "meta": {"OBJECT_NAME": "NOAA 20 (JPSS-1)", "OBJECT_ID": "2017-073A", "EPOCH": "2025-12-14T07:54:39.837600", "MEAN_MOTION": 14.19526269, "ECCENTRICITY": 0.00021475, "INCLINATION": 98.76, "RA_OF_ASC_NODE": 284.609, "ARG_OF_PERICENTER": 85.0161, "MEAN_ANOMALY": 275.1261, "EPHEMERIS_TYPE": 0, "CLASSIFICATION_TYPE": "U", "NORAD_CAT_ID": 43013, "ELEMENT_SET_NO": 999, "REV_AT_EPOCH": 41824, "BSTAR": 7.9065099e-05, "MEAN_MOTION_DOT": 1.23e-06, "MEAN_MOTION_DDOT": 0}, "tle": {"line1": "1 43013U 17073A   25348.32962775  .00000123  00000+0  79065-4 0  9998", "line2": "2 43013  98.7600 284.6090 0002147  85.0161 275.1261 14.19526269418245"}}, "geometry": {"type": "Point", "coordinates": [74.52588976946697, -73.19033439495847]}}, {"type": "Feature", "properties": {"norad_id": 43226, "name": "GOES 17", "group": "weather", "lat": -0.4216772032521861, "lon": -25.9503326401439, "alt_km": 35778.620040273505, "timestamp": "2025-12-14T22:38:40.403271+00:00", "meta": {"OBJECT_NAME": "GOES 17", "OBJECT_ID": "2018-022A", "EPOCH": "2025-12-14T06:08:39.264000", "MEAN_MOTION": 1.00271685, "ECCENTRICITY": 0.00032008, "INCLINATION": 0.4637, "RA_OF_ASC_NODE": 89.0985, "ARG_OF_PERICENTER": 189.1696, "MEAN_ANOMALY": 167.5791, "EPHEMERIS_TYPE": 0, "CLASSIFICATION_TYPE": "U", "NORAD_CAT_ID": 43226, "ELEMENT_SET_NO": 999, "REV_AT_EPOCH": 2856, "BSTAR": 0, "MEAN_MOTION_DOT": -1.65e-06, "MEAN_MOTION_DDOT": 0}, "tle": {"line1": "1 43226U 18022A   25348.25601000 -.00000165  00000+0  00000+0 0  9997", "line2": "2 43226   0.4637  89.0985 0003200 189.1696 167.5791  1.00271685 28560"}}, "geometry": {"type": "Point", "coordinates": [-25.9503326401439, -0.4216772032521861]}}, {"type": "Feature", "properties": {"norad_id": 43491, "name": "FENGYUN 2H", "group": "weather", "lat": 2.253862449147484, "lon": 142.81861244810335, "alt_km": 35789.100530315656, "timestamp": "2025-12-14T22:38:40.403292+00:00", "meta": {"OBJECT_NAME": "FENGYUN 2H", "OBJECT_ID": "2018-050A", "EPOCH": "2025-12-14T01:48:42.025824", "MEAN_MOTION": 1.0027128, "ECCENTRICITY": 0.00027131, "INCLINATION": 2.5546, "RA_OF_ASC_NODE": 81.3164, "ARG_OF_PERICENTER": 167.3456, "MEAN_ANOMALY": 300.87, "EPHEMERIS_TYPE": 0, "CLASSIFICATION_TYPE": "U", "NORAD_CAT_ID": 43491, "ELEMENT_SET_NO": 999, "REV_AT_EPOCH": 2758, "BSTAR": 0, "MEAN_MOTION_DOT": -1.13e-06, "MEAN_MOTION_DDOT": 0}, "tle": {"line1": "1 43491U 18050A   25348.07548641 -.00000113  00000+0  00000+0 0  9996", "line2": "2 43491   2.5546  81.3164 0002713 167.3456 300.8700  1.00271280 27584"}}, "geometry": {"type": "Point", "coordinates": [142.81861244810335, 2.253862449147484]}}, {"type": "Feature", "properties": {"norad_id": 43689, "name": "METOP-C", "group": "weather", "lat": 51.182974455637925, "lon": 35.71668908405583, "alt_km": 814.7588446520022, "timestamp": "2025-12-14T22:38:40.403304+00:00", "meta": {"OBJECT_NAME": "METOP-C", "OBJECT_ID": "2018-087A", "EPOCH": "2025-12-14T05:30:26.867232", "MEAN_MOTION": 14.21485111, "ECCENTRICITY": 0.00011779, "INCLINATION": 98.693, "RA_OF_ASC_NODE": 45.9764, "ARG_OF_PERICENTER": 36.7654, "MEAN_ANOMALY": 323.3604, "EPHEMERIS_TYPE": 0, "CLASSIFICATION_TYPE": "U", "NORAD_CAT_ID": 43689, "ELEMENT_SET_NO": 999, "REV_AT_EPOCH": 36855, "BSTAR": 0.00010945367, "MEAN_MOTION_DOT": 1.96e-06, "MEAN_MOTION_DDOT": 0}, "tle": {"line1": "1 43689U 18087A   25348.22947763  .00000196  00000+0  10945-3 0  9993", "line2": "2 43689  98.6930  45.9764 0001177  36.7654 323.3604 14.21485111368555"}}, "geometry": {"type": "Point", "coordinates": [35.71668908405583, 51.182974455637925]}}, {"type": "Feature", "properties": {"norad_id": 43823, "name": "GEO-KOMPSAT-2A", "group": "weather", "lat": 0.012732719063152395, "lon": -168.20404327981947, "alt_km": 35785.33844871513, "timestamp": "2025-12-14T22:38:40.403318+00:00", "meta": {"OBJECT_NAME": "GEO-KOMPSAT-2A", "OBJECT_ID": "2018-100A", "EPOCH": "2025-12-14T07:10:48.313056", "MEAN_MOTION": 1.00273123, "ECCENTRICITY": 4.545e-05, "INCLINATION": 0.0416, "RA_OF_ASC_NODE": 138.3538, "ARG_OF_PERICENTER": 337.6228, "MEAN_ANOMALY": 203.2195, "EPHEMERIS_TYPE": 0, "CLASSIFICATION_TYPE": "U", "NORAD_CAT_ID": 43823, "ELEMENT_SET_NO": 999, "REV_AT_EPOCH": 2577, "BSTAR": 0, "MEAN_MOTION_DOT": -3.26e-06, "MEAN_MOTION_DDOT": 0}, "tle": {"line1": "1 43823U 18100A   25348.29917029 -.00000326  00000+0  00000+0 0  9991", "line2": "2 43823   0.0416 138.3538 0000454 337.6228 203.2195  1.00273123 25770"}}, "geometry": {"type": "Point", "coordinates": [-168.20404327981947, 0.012732719063152395]}}, {"type": "Feature", "properties": {"norad_id": 44387, "name": "METEOR-M2 2", "group": "weather", "lat": 31.039790067482215, "lon": 154.10888996360464, "alt_km": 808.153363160608, "timestamp": "2025-12-14T22:38:40.403329+00:00", "meta": {"OBJECT_NAME": "METEOR-M2 2", "OBJECT_ID": "2019-038A", "EPOCH": "2025-12-14T08:27:43.196256", "MEAN_MOTION": 14.24293739, "ECCENTRICITY": 0.00013371, "INCLINATION": 98.8974, "RA_OF_ASC_NODE": 328.1013, "ARG_OF_PERICENTER": 144.3214, "MEAN_ANOMALY": 215.8054, "EPHEMERIS_TYPE": 0, "CLASSIFICATION_TYPE": "U", "NORAD_CAT_ID": 44387, "ELEMENT_SET_NO": 999, "REV_AT_EPOCH": 33498, "BSTAR": 0.00024517133, "MEAN_MOTION_DOT": 5.2e-06, "MEAN_MOTION_DDOT": 0}, "tle": {"line1": "1 44387U 19038A   25348.35258329  .00000520  00000+0  24517-3 0  9994", "line2": "2 44387  98.8974 328.1013 0001337 144.3214 215.8054 14.24293739334980"}}, "geometry": {"type": "Point", "coordinates": [154.10888996360464, 31.039790067482215]}}, {"type": "Feature", "properties": {"norad_id": 47719, "name": "ARKTIKA-M 1", "group": "weather", "lat": 51.11293908774385, "lon": -135.07434940715208, "alt_km": 27497.48606213106, "timestamp": "2025-12-14T22:38:40.403343+00:00", "meta": {"OBJECT_NAME": "ARKTIKA-M 1", "OBJECT_ID": "2021-016A", "EPOCH": "2025-12-09T14:03:23.859648", "MEAN_MOTION": 2.00631311, "ECCENTRICITY": 0.7202538, "INCLINATION": 63.1769, "RA_OF_ASC_NODE": 84.4506, "ARG_OF_PERICENTER": 269.1116, "MEAN_ANOMALY": 15.6235, "EPHEMERIS_TYPE": 0, "CLASSIFICATION_TYPE": "U", "NORAD_CAT_ID": 47719, "ELEMENT_SET_NO": 999, "REV_AT_EPOCH": 3498, "BSTAR": 0, "MEAN_MOTION_DOT": -6.1e-07, "MEAN_MOTION_DDOT": 0}, "tle": {"line1": "1 47719U 21016A   25343.58569282 -.00000061  00000+0  00000+0 0  9996", "line2": "2 47719  63.1769  84.4506 7202538 269.1116  15.6235  2.00631311 34985"}}, "geometry": {"type": "Point", "coordinates": [-135.07434940715208, 51.11293908774385]}}, {"type": "Feature", "properties": {"norad_id": 49008, "name": "FENGYUN 3E", "group": "weather", "lat": 70.67158064243534, "lon": -36.60079757511889, "alt_km": 819.3044973697115, "timestamp": "2025-12-14T22:38:40.403362+00:00", "meta": {"OBJECT_NAME": "FENGYUN 3E", "OBJECT_ID": "2021-062A", "EPOCH": "2025-12-14T07:04:56.172576", "MEAN_MOTION": 14.19879232, "ECCENTRICITY": 5.651e-05, "INCLINATION": 98.748, "RA_OF_ASC_NODE": 348.798, "ARG_OF_PERICENTER": 253.9889, "MEAN_ANOMALY": 106.1225, "EPHEMERIS_TYPE": 0, "CLASSIFICATION_TYPE": "U", "NORAD_CAT_ID": 49008, "ELEMENT_SET_NO": 999, "REV_AT_EPOCH": 23034, "BSTAR": -4.3798232e-05, "MEAN_MOTION_DOT": -1.37e-06, "MEAN_MOTION_DDOT": 0}, "tle": {"line1": "1 49008U 21062A   25348.29509459 -.00000137  00000+0 -43798-4 0  9994", "line2": "2 49008  98.7480 348.7980 0000565 253.9889 106.1225 14.19879232230343"}}, "geometry": {"type": "Point", "coordinates": [-36.60079757511889, 70.67158064243534]}}, {"type": "Feature", "properties": {"norad_id": 51850, "name": "GOES 18", "group": "weather", "lat": 0.0010250867799435034, "lon": -73.4877664212898, "alt_km": 35784.39190359881, "timestamp": "2025-12-14T22:38:40.403374+00:00", "meta": {"OBJECT_NAME": "GOES 18", "OBJECT_ID": "2022-021A", "EPOCH": "2025-12-14T05:55:10.554816", "MEAN_MOTION": 1.0027093, "ECCENTRICITY": 5.013e-05, "INCLINATION": 0.02, "RA_OF_ASC_NODE": 155.6685, "ARG_OF_PERICENTER": 159.1299, "MEAN_ANOMALY": 80.1672, "EPHEMERIS_TYPE": 0, "CLASSIFICATION_TYPE": "U", "NORAD_CAT_ID": 51850, "ELEMENT_SET_NO": 999, "REV_AT_EPOCH": 473, "BSTAR": 0, "MEAN_MOTION_DOT": 1.14e-06, "MEAN_MOTION_DDOT": 0}, "tle": {"line1": "1 51850U 22021A   25348.24664994  .00000114  00000+0  00000+0 0  9996", "line2": "2 51850   0.0200 155.6685 0000501 159.1299  80.1672  1.00270930  4731"}}, "geometry": {"type": "Point", "coordinates": [-73.4877664212898, 0.0010250867799435034]}}]}